{"type": "FeatureCollection", "features": [ {"type": "Feature", "properties": {"norad_id": 31362, "name": "FENGYUN 1C DEB", "group": "fengyun-1c-debris", "lat": -37.48627506900353, "lon": 168.61457761920192, "alt_km": 853.6998538013677, "timestamp": "2025-12-27T08:36:18.664348+00:00", "meta": {"OBJECT_NAME": "FENGYUN 1C DEB", "OBJECT_ID": "1999-025BRS", "EPOCH": "2025-12-25T20:00:11.166048", "MEAN_MOTION": 14.1738766, "ECCENTRICITY": 0.00191533, "INCLINATION": 98.6532, "RA_OF_ASC_NODE": 353.8369, "ARG_OF_PERICENTER": 59.9167, "MEAN_ANOMALY": 300.3904, "EPHEMERIS_TYPE": 0, "CLASSIFICATION_TYPE": "U", "NORAD_CAT_ID": 31362, "ELEMENT_SET_NO": 999, "REV_AT_EPOCH": 96761, "BSTAR": 0.00016907424, "MEAN_MOTION_DOT": 3e-06, "MEAN_MOTION_DDOT": 0}, "tle": {"line1": "1 31362U 99025BRS 25359.83346257  .00000300  00000+0  16907-3 0  9990", "line2": "2 31362  98.6532 353.8369 0019153  59.9167 300.3904 14.17387660967614"}}, "geometry": {"type": "Point", "coordinates": [168.61457761920192, -37.48627506900353]}}, {"type": "Feature", "properties": {"norad_id": 31364, "name": "FENGYUN 1C DEB", "group": "fengyun-1c-debris", "lat": 77.0119949913717, "lon": -13.419436346582541, "alt_km": 770.0006955030804, "timestamp": "2025-12-27T08:36:18.664358+00:00", "meta": {"OBJECT_NAME": "FENGYUN 1C DEB", "OBJECT_ID": "1999-025BRU", "EPOCH": "2025-12-27T01:21:11.644128", "MEAN_MOTION": 14.14807312, "ECCENTRICITY": 0.0092041, "INCLINATION": 99.2619, "RA_OF_ASC_NODE": 121.2375, "ARG_OF_PERICENTER": 109.0199, "MEAN_ANOMALY": 252.0972, "EPHEMERIS_TYPE": 0, "CLASSIFICATION_TYPE": "U", "NORAD_CAT_ID": 31364, "ELEMENT_SET_NO": 999, "REV_AT_EPOCH": 95079, "BSTAR": 0.0031925, "MEAN_MOTION_DOT": 6.372e-05, "MEAN_MOTION_DDOT": 0}, "tle": {"line1": "1 31364U 99025BRU 25361.05638477  .00006372  00000+0  31925-2 0  9998", "line2": "2 31364  99.2619 121.2375 0092041 109.0199 252.0972 14.14807312950799"}}, "geometry": {"type": "Point", "coordinates": [-13.419436346582541, 77.0119949913717]}}, {"type": "Feature", "properties": {"norad_id": 31365, "name": "FENGYUN 1C DEB", "group": "fengyun-1c-debris", "lat": 34.31516597254979, "lon": 80.66037532291323, "alt_km": 773.77553968345, "timestamp": "2025-12-27T08:36:18.664368+00:00", "meta": {"OBJECT_NAME": "FENGYUN 1C DEB", "OBJECT_ID": "1999-025BRV", "EPOCH": "2025-12-26T04:07:59.471040", "MEAN_MOTION": 14.42015542, "ECCENTRICITY": 0.0042806, "INCLINATION": 98.673, "RA_OF_ASC_NODE": 85.4354, "ARG_OF_PERICENTER": 181.1104, "MEAN_ANOMALY": 178.9996, "EPHEMERIS_TYPE": 0, "CLASSIFICATION_TYPE": "U", "NORAD_CAT_ID": 31365, "ELEMENT_SET_NO": 999, "REV_AT_EPOCH": 96822, "BSTAR": 0.002107, "MEAN_MOTION_DOT": 6.951e-05, "MEAN_MOTION_DDOT": 0}, "tle": {"line1": "1 31365U 99025BRV 25360.17221610  .00006951  00000+0  21070-2 0  9991", "line2": "2 31365  98.6730  85.4354 0042806 181.1104 178.9996 14.42015542968222"}}, "geometry": {"type": "Point", "coordinates": [80.66037532291323, 34.31516597254979]}}, {"type": "Feature", "properties": {"norad_id": 31367, "name": "FENGYUN 1C DEB", "group": "fengyun-1c-debris", "lat": -49.02817831478616, "lon": 65.90762956784538, "alt_km": 755.3760602452721, "timestamp": "2025-12-27T08:36:18.664377+00:00", "meta": {"OBJECT_NAME": "FENGYUN 1C DEB", "OBJECT_ID": "1999-025BRX", "EPOCH": "2025-12-26T16:43:42.849408", "MEAN_MOTION": 14.47555075, "ECCENTRICITY": 0.00986072, "INCLINATION": 98.7455, "RA_OF_ASC_NODE": 255.434, "ARG_OF_PERICENTER": 334.5383, "MEAN_ANOMALY": 50.9395, "EPHEMERIS_TYPE": 0, "CLASSIFICATION_TYPE": "U", "NORAD_CAT_ID": 31367, "ELEMENT_SET_NO": 999, "REV_AT_EPOCH": 98668, "BSTAR": 0.00070622435, "MEAN_MOTION_DOT": 2.71e-05, "MEAN_MOTION_DDOT": 0}, "tle": {"line1": "1 31367U 99025BRX 25360.69702372  .00002710  00000+0  70622-3 0  9996", "line2": "2 31367  98.7455 255.4340 0098607 334.5383  50.9395 14.47555075986683"}}, "geometry": {"type": "Point", "coordinates": [65.90762956784538, -49.02817831478616]}}, {"type": "Feature", "properties": {"norad_id": 31369, "name": "FENGYUN 1C DEB", "group": "fengyun-1c-debris", "lat": -62.27739596928003, "lon": 145.46362675532708, "alt_km": 796.3319265272967, "timestamp": "2025-12-27T08:36:18.664387+00:00", "meta": {"OBJECT_NAME": "FENGYUN 1C DEB", "OBJECT_ID": "1999-025BRZ", "EPOCH": "2025-12-26T18:30:18.254304", "MEAN_MOTION": 14.19427454, "ECCENTRICITY": 0.00542459, "INCLINATION": 98.6201, "RA_OF_ASC_NODE": 341.6692, "ARG_OF_PERICENTER": 258.1592, "MEAN_ANOMALY": 225.0553, "EPHEMERIS_TYPE": 0, "CLASSIFICATION_TYPE": "U", "NORAD_CAT_ID": 31369, "ELEMENT_SET_NO": 999, "REV_AT_EPOCH": 64526, "BSTAR": 0.0002788204, "MEAN_MOTION_DOT": 5.52e-06, "MEAN_MOTION_DDOT": 0}, "tle": {"line1": "1 31369U 99025BRZ 25360.77104461  .00000552  00000+0  27882-3 0  9994", "line2": "2 31369  98.6201 341.6692 0054245 258.1592 225.0553 14.19427454645269"}}, "geometry": {"type": "Point", "coordinates": [145.46362675532708, -62.27739596928003]}}, {"type": "Feature", "properties": {"norad_id": 31370, "name": "FENGYUN 1C DEB", "group": "fengyun-1c-debris", "lat": -47.2913856045952, "lon": 171.3578894533361, "alt_km": 845.7856340778781, "timestamp": "2025-12-27T08:36:18.664397+00:00", "meta": {"OBJECT_NAME": "FENGYUN 1C DEB", "OBJECT_ID": "1999-025BSA", "EPOCH": "2025-12-25T11:14:09.232224", "MEAN_MOTION": 14.09723002, "ECCENTRICITY": 0.0033165, "INCLINATION": 98.7541, "RA_OF_ASC_NODE": 359.129, "ARG_OF_PERICENTER": 260.9395, "MEAN_ANOMALY": 98.8022, "EPHEMERIS_TYPE": 0, "CLASSIFICATION_TYPE": "U", "NORAD_CAT_ID": 31370, "ELEMENT_SET_NO": 999, "REV_AT_EPOCH": 96473, "BSTAR": 0.00029824, "MEAN_MOTION_DOT": 4.83e-06, "MEAN_MOTION_DDOT": 0}, "tle": {"line1": "1 31370U 99025BSA 25359.46816241  .00000483  00000+0  29824-3 0  9997", "line2": "2 31370  98.7541 359.1290 0033165 260.9395  98.8022 14.09723002964737"}}, "geometry": {"type": "Point", "coordinates": [171.3578894533361, -47.2913856045952]}}, {"type": "Feature", "properties": {"norad_id": 31371, "name": "FENGYUN 1C DEB", "group": "fengyun-1c-debris", "lat": -37.39478586607409, "lon": -152.92694373462976, "alt_km": 828.6211404299002, "timestamp": "2025-12-27T08:36:18.664407+00:00", "meta": {"OBJECT_NAME": "FENGYUN 1C DEB", "OBJECT_ID": "1999-025BSB", "EPOCH": "2025-12-26T12:45:48.917952", "MEAN_MOTION": 14.04541373, "ECCENTRICITY": 0.0078596, "INCLINATION": 98.7649, "RA_OF_ASC_NODE": 33.0477, "ARG_OF_PERICENTER": 208.0679, "MEAN_ANOMALY": 151.624, "EPHEMERIS_TYPE": 0, "CLASSIFICATION_TYPE": "U", "NORAD_CAT_ID": 31371, "ELEMENT_SET_NO": 999, "REV_AT_EPOCH": 95940, "BSTAR": 0.00094215, "MEAN_MOTION_DOT": 1.504e-05, "MEAN_MOTION_DDOT": 0}, "tle": {"line1": "1 31371U 99025BSB 25360.53181618  .00001504  00000+0  94215-3 0  9992", "line2": "2 31371  98.7649  33.0477 0078596 208.0679 151.6240 14.04541373959409"}}, "geometry": {"type": "Point", "coordinates": [-152.92694373462976, -37.39478586607409]}}, {"type": "Feature", "properties": {"norad_id": 31372, "name": "FENGYUN 1C DEB", "group": "fengyun-1c-debris", "lat": 38.267327489685265, "lon": -14.06222098318525, "alt_km": 775.8132316123301, "timestamp": "2025-12-27T08:36:18.664417+00:00", "meta": {"OBJECT_NAME": "FENGYUN 1C DEB", "OBJECT_ID": "1999-025BSC", "EPOCH": "2025-12-26T15:35:33.705024", "MEAN_MOTION": 14.26639875, "ECCENTRICITY": 0.00338878, "INCLINATION": 99.3751, "RA_OF_ASC_NODE": 352.6673, "ARG_OF_PERICENTER": 35.9506, "MEAN_ANOMALY": 324.3943, "EPHEMERIS_TYPE": 0, "CLASSIFICATION_TYPE": "U", "NORAD_CAT_ID": 31372, "ELEMENT_SET_NO": 999, "REV_AT_EPOCH": 96049, "BSTAR": 0.0017681449, "MEAN_MOTION_DOT": 4.25e-05, "MEAN_MOTION_DDOT": 0}, "tle": {"line1": "1 31372U 99025BSC 25360.64969566  .00004250  00000+0  17681-2 0  9993", "line2": "2 31372  99.3751 352.6673 0033887  35.9506 324.3943 14.26639875960498"}}, "geometry": {"type": "Point", "coordinates": [-14.06222098318525, 38.267327489685265]}}, {"type": "Feature", "properties": {"norad_id": 31376, "name": "FENGYUN 1C DEB", "group": "fengyun-1c-debris", "lat": -5.995801223436256, "lon": -80.49590483085133, "alt_km": 712.9492281397524, "timestamp": "2025-12-27T08:36:18.664427+00:00", "meta": {"OBJECT_NAME": "FENGYUN 1C DEB", "OBJECT_ID": "1999-025BSG", "EPOCH": "2025-12-27T00:25:13.130112", "MEAN_MOTION": 14.6199919, "ECCENTRICITY": 0.0048335, "INCLINATION": 98.8332, "RA_OF_ASC_NODE": 278.204, "ARG_OF_PERICENTER": 223.6004, "MEAN_ANOMALY": 136.1371, "EPHEMERIS_TYPE": 0, "CLASSIFICATION_TYPE": "U", "NORAD_CAT_ID": 31376, "ELEMENT_SET_NO": 999, "REV_AT_EPOCH": 98351, "BSTAR": 0.0025365, "MEAN_MOTION_DOT": 0.00012897, "MEAN_MOTION_DDOT": 0}, "tle": {"line1": "1 31376U 99025BSG 25361.01751308  .00012897  00000+0  25365-2 0  9996", "line2": "2 31376  98.8332 278.2040 0048335 223.6004 136.1371 14.61999190983515"}}, "geometry": {"type": "Point", "coordinates": [-80.49590483085133, -5.995801223436256]}}, {"type": "Feature", "properties": {"norad_id": 31378, "name": "FENGYUN 1C DEB", "group": "fengyun-1c-debris", "lat": 0.8652673801815008, "lon": -107.89346532658142, "alt_km": 1082.27447061776, "timestamp": "2025-12-27T08:36:18.664437+00:00", "meta": {"OBJECT_NAME": "FENGYUN 1C DEB", "OBJECT_ID": "1999-025BSJ", "EPOCH": "2025-12-24T12:44:38.104512", "MEAN_MOTION": 13.80093573, "ECCENTRICITY": 0.01685737, "INCLINATION": 100.7561, "RA_OF_ASC_NODE": 249.0603, "ARG_OF_PERICENTER": 168.0934, "MEAN_ANOMALY": 192.4275, "EPHEMERIS_TYPE": 0, "CLASSIFICATION_TYPE": "U", "NORAD_CAT_ID": 31378, "ELEMENT_SET_NO": 999, "REV_AT_EPOCH": 94386, "BSTAR": 0.00064589916, "MEAN_MOTION_DOT": 6.93e-06, "MEAN_MOTION_DDOT": 0}, "tle": {"line1": "1 31378U 99025BSJ 25358.53099658  .00000693  00000+0  64590-3 0  9999", "line2": "2 31378 100.7561 249.0603 0168573 168.0934 192.4275 13.80093573943868"}}, "geometry": {"type": "Point", "coordinates": [-107.89346532658142, 0.8652673801815008]}}]}